IRIDIUM 155             
1 43573U 18061E   23165.53600355  .00000190  00000+0  60735-4 0  9996
2 43573  86.3975 155.8647 0002348  82.3189 277.8274 14.34220536255881
IRIDIUM 154             
1 43574U 18061F   23165.23789985  .00000169  00000+0  53296-4 0  9991
2 43574  86.3980 156.0692 0002511  92.2503 267.8981 14.34217636255895
IRIDIUM 163             
1 43575U 18061G   23165.42817545  .00000181  00000+0  57424-4 0  9998
2 43575  86.3978 155.9393 0002343  91.7259 268.4206 14.34218276255892
IRIDIUM 156             
1 43576U 18061H   23165.26326613  .00000183  00000+0  58448-4 0  9991
2 43576  86.3977 156.0139 0002145  83.9334 276.2106 14.34218881255864
IRIDIUM 164             
1 43577U 18061J   23165.38377752  .00000184  00000+0  58715-4 0  9993
2 43577  86.3978 155.9870 0002253  93.1350 267.0103 14.34218378255920
IRIDIUM 159             
1 43578U 18061K   23165.42183501  .00000187  00000+0  59748-4 0  9996
2 43578  86.3976 155.9312 0002426  88.7789 271.3684 14.34217191255898
IRIDIUM 180             
1 43922U 19002A   23165.21202285  .00000271  00000+0  89783-4 0  9999
2 43922  86.3978  92.9087 0002412  86.9861 273.1610 14.34213889231475
IRIDIUM 176             
1 43923U 19002B   23165.32494697  .00001120  00000+0  17384-3 0  9993
2 43923  86.6058  92.9031 0003248  76.7269 283.4311 14.72221544237572
IRIDIUM 168             
1 43924U 19002C   23165.20567219  .00000318  00000+0  10657-3 0  9996
2 43924  86.3968  92.9582 0002372  87.4116 272.7351 14.34221815231453
IRIDIUM 173             
1 43925U 19002D   23165.33253267  .00000316  00000+0  10577-3 0  9995
2 43925  86.3948  92.8396 0002506  86.5259 273.6224 14.34214935231455
IRIDIUM 169             
1 43926U 19002E   23165.27103418  .00000378  00000+0  11702-3 0  9990
2 43926  86.4221 124.4813 0004534  35.4196 324.7302 14.38597383232230
IRIDIUM 172             
1 43927U 19002F   23165.53549567  .00000302  00000+0  10077-3 0  9990
2 43927  86.3964  92.7588 0002361  85.5001 274.6464 14.34218547231494
IRIDIUM 175             
1 43928U 19002G   23165.25069335  .00001157  00000+0  17943-3 0  9998
2 43928  86.1513  86.9162 0002454  86.2164 273.9333 14.72255832237557
IRIDIUM 171             
1 43929U 19002H   23165.30715938  .00000305  00000+0  10177-3 0  9998
2 43929  86.3983  93.0375 0002145  90.1569 269.9873 14.34216489231456
IRIDIUM 170             
1 43930U 19002J   23165.19525072  .00001120  00000+0  17367-3 0  9999
2 43930  86.6096  92.9600 0002453  89.6493 270.5005 14.72258964237565
IRIDIUM 167             
1 43931U 19002K   23165.23105107  .00000314  00000+0  10500-3 0  9994
2 43931  86.3964  92.8986 0002336  89.3480 270.7984 14.34218747231448
IRIDIUM 181             
1 56726U 23068S   23165.32920848  .00001525  00000+0  19661-3 0  9996
2 56726  86.6764 130.0540 0003227 112.8620 247.2943 14.80376916  3810
IRIDIUM 177             
1 56727U 23068T   23164.98561235  .00001506  00000+0  19434-3 0  9996
2 56727  86.6754 130.1876 0002762 106.9842 253.1682 14.80331348  3766
IRIDIUM 174             
1 56728U 23068U   23165.31817255  .00001539  00000+0  19869-3 0  9999
2 56728  86.6807 130.0616 0002767 105.2732 254.8796 14.80332146  3819
IRIDIUM 178             
1 56729U 23068V   23165.44795252  .00001474  00000+0  19042-3 0  9997
2 56729  86.6752 129.9846 0002400 105.3124 254.8363 14.80260105  3838
IRIDIUM 179             
1 56730U 23068W   23165.44217048  .00001481  00000+0  19144-3 0  9992
2 56730  86.6793 129.9941 0002320 106.2287 253.9190 14.80237409  3831
